{
  "type": "FeatureCollection",
  "features": [
    {
      "type": "Feature",
      "properties": {
        "norad_id": 38250,
        "name": "BEIDOU-2 M3 (C11)",
        "group": "beidou",
        "lat": -54.20089497358502,
        "lon": -159.3174683241418,
        "alt_km": 21469.006322188474,
        "timestamp": "2025-12-18T14:52:08.290930+00:00",
        "meta_object_name": "BEIDOU-2 M3 (C11)",
        "meta_object_id": "2012-018A",
        "meta_epoch": "2025-12-17T03:50:10.506912",
        "meta_mean_motion": 1.86229968,
        "meta_eccentricity": 0.00242614,
        "meta_inclination": 55.9161,
        "meta_ra_of_asc_node": 311.0085,
        "meta_arg_of_pericenter": 274.7282,
        "meta_mean_anomaly": 84.9799,
        "meta_ephemeris_type": 0,
        "meta_classification_type": "U",
        "meta_norad_cat_id": 38250,
        "meta_element_set_no": 999,
        "meta_rev_at_epoch": 9255,
        "meta_bstar": 0,
        "meta_mean_motion_dot": -9.2e-07,
        "meta_mean_motion_ddot": 0,
        "tle_line1": "1 38250U 12018A   25351.15984383 -.00000092  00000+0  00000+0 0  9997",
        "tle_line2": "2 38250  55.9161 311.0085 0024261 274.7282  84.9799  1.86229968 92550"
      },
      "geometry": {
        "type": "Point",
        "coordinates": [
          -159.3174683241418,
          -54.20089497358502
        ]
      }
    },
    {
      "type": "Feature",
      "properties": {
        "norad_id": 38251,
        "name": "BEIDOU-2 M4 (C12)",
        "group": "beidou",
        "lat": -43.23518238556338,
        "lon": -89.51652545972703,
        "alt_km": 21494.341949366528,
        "timestamp": "2025-12-18T14:52:08.290942+00:00",
        "meta_object_name": "BEIDOU-2 M4 (C12)",
        "meta_object_id": "2012-018B",
        "meta_epoch": "2025-12-18T03:58:46.977600",
        "meta_mean_motion": 1.86229645,
        "meta_eccentricity": 0.00154499,
        "meta_inclination": 55.8165,
        "meta_ra_of_asc_node": 310.203,
        "meta_arg_of_pericenter": 278.2427,
        "meta_mean_anomaly": 81.5679,
        "meta_ephemeris_type": 0,
        "meta_classification_type": "U",
        "meta_norad_cat_id": 38251,
        "meta_element_set_no": 999,
        "meta_rev_at_epoch": 9257,
        "meta_bstar": 0,
        "meta_mean_motion_dot": -8.6e-07,
        "meta_mean_motion_ddot": 0,
        "tle_line1": "1 38251U 12018B   25352.16582150 -.00000086  00000+0  00000+0 0  9999",
        "tle_line2": "2 38251  55.8165 310.2030 0015449 278.2427  81.5679  1.86229645 92577"
      },
      "geometry": {
        "type": "Point",
        "coordinates": [
          -89.51652545972703,
          -43.23518238556338
        ]
      }
    },
    {
      "type": "Feature",
      "properties": {
        "norad_id": 38775,
        "name": "BEIDOU-2 M6 (C14)",
        "group": "beidou",
        "lat": 33.80392463078387,
        "lon": -137.518621102783,
        "alt_km": 21552.584769327015,
        "timestamp": "2025-12-18T14:52:08.290953+00:00",
        "meta_object_name": "BEIDOU-2 M6 (C14)",
        "meta_object_id": "2012-050B",
        "meta_epoch": "2025-12-16T19:16:00.374304",
        "meta_mean_motion": 1.86230897,
        "meta_eccentricity": 0.00113573,
        "meta_inclination": 56.3818,
        "meta_ra_of_asc_node": 68.9326,
        "meta_arg_of_pericenter": 343.3915,
        "meta_mean_anomaly": 16.5942,
        "meta_ephemeris_type": 0,
        "meta_classification_type": "U",
        "meta_norad_cat_id": 38775,
        "meta_element_set_no": 999,
        "meta_rev_at_epoch": 8991,
        "meta_bstar": 0,
        "meta_mean_motion_dot": -7.7e-07,
        "meta_mean_motion_ddot": 0,
        "tle_line1": "1 38775U 12050B   25350.80278211 -.00000077  00000+0  00000+0 0  9995",
        "tle_line2": "2 38775  56.3818  68.9326 0011357 343.3915  16.5942  1.86230897 89910"
      },
      "geometry": {
        "type": "Point",
        "coordinates": [
          -137.518621102783,
          33.80392463078387
        ]
      }
    },
    {
      "type": "Feature",
      "properties": {
        "norad_id": 38953,
        "name": "BEIDOU-2 G6 (C02)",
        "group": "beidou",
        "lat": -2.578930700292506,
        "lon": 34.58237450348865,
        "alt_km": 35756.52025809321,
        "timestamp": "2025-12-18T14:52:08.290965+00:00",
        "meta_object_name": "BEIDOU-2 G6 (C02)",
        "meta_object_id": "2012-059A",
        "meta_epoch": "2025-12-17T23:55:21.927648",
        "meta_mean_motion": 1.00269401,
        "meta_eccentricity": 0.00081896,
        "meta_inclination": 3.9621,
        "meta_ra_of_asc_node": 75.4554,
        "meta_arg_of_pericenter": 291.8259,
        "meta_mean_anomaly": 162.3957,
        "meta_ephemeris_type": 0,
        "meta_classification_type": "U",
        "meta_norad_cat_id": 38953,
        "meta_element_set_no": 999,
        "meta_rev_at_epoch": 4809,
        "meta_bstar": 0,
        "meta_mean_motion_dot": -1.53e-06,
        "meta_mean_motion_ddot": 0,
        "tle_line1": "1 38953U 12059A   25351.99678157 -.00000153  00000+0  00000+0 0  9991",
        "tle_line2": "2 38953   3.9621  75.4554 0008189 291.8259 162.3957  1.00269401 48090"
      },
      "geometry": {
        "type": "Point",
        "coordinates": [
          34.58237450348865,
          -2.578930700292506
        ]
      }
    },
    {
      "type": "Feature",
      "properties": {
        "norad_id": 40549,
        "name": "BEIDOU-3S IGSO-1S (C31)",
        "group": "beidou",
        "lat": 46.742688409564785,
        "lon": 52.70014134122374,
        "alt_km": 35765.928239470224,
        "timestamp": "2025-12-18T14:52:08.290977+00:00",
        "meta_object_name": "BEIDOU-3S IGSO-1S (C31)",
        "meta_object_id": "2015-019A",
        "meta_epoch": "2025-12-16T22:00:09.125856",
        "meta_mean_motion": 1.00292577,
        "meta_eccentricity": 0.00363578,
        "meta_inclination": 49.5427,
        "meta_ra_of_asc_node": 297.6612,
        "meta_arg_of_pericenter": 193.8033,
        "meta_mean_anomaly": 18.6613,
        "meta_ephemeris_type": 0,
        "meta_classification_type": "U",
        "meta_norad_cat_id": 40549,
        "meta_element_set_no": 999,
        "meta_rev_at_epoch": 3924,
        "meta_bstar": 0,
        "meta_mean_motion_dot": -1.91e-06,
        "meta_mean_motion_ddot": 0,
        "tle_line1": "1 40549U 15019A   25350.91677229 -.00000191  00000+0  00000+0 0  9996",
        "tle_line2": "2 40549  49.5427 297.6612 0036357 193.8033  18.6613  1.00292577 39245"
      },
      "geometry": {
        "type": "Point",
        "coordinates": [
          52.70014134122374,
          46.742688409564785
        ]
      }
    },
    {
      "type": "Feature",
      "properties": {
        "norad_id": 40748,
        "name": "BEIDOU-3S M2S (C58)",
        "group": "beidou",
        "lat": 11.05254510157308,
        "lon": 120.38760461913797,
        "alt_km": 21533.973322614267,
        "timestamp": "2025-12-18T14:52:08.290988+00:00",
        "meta_object_name": "BEIDOU-3S M2S (C58)",
        "meta_object_id": "2015-037A",
        "meta_epoch": "2025-12-11T22:15:26.437248",
        "meta_mean_motion": 1.8622897,
        "meta_eccentricity": 0.00123447,
        "meta_inclination": 55.0397,
        "meta_ra_of_asc_node": 308.4912,
        "meta_arg_of_pericenter": 267.8245,
        "meta_mean_anomaly": 92.025,
        "meta_ephemeris_type": 0,
        "meta_classification_type": "U",
        "meta_norad_cat_id": 40748,
        "meta_element_set_no": 999,
        "meta_rev_at_epoch": 7063,
        "meta_bstar": 0,
        "meta_mean_motion_dot": -8.9e-07,
        "meta_mean_motion_ddot": 0,
        "tle_line1": "1 40748U 15037A   25345.92738932 -.00000089  00000+0  00000+0 0  9997",
        "tle_line2": "2 40748  55.0397 308.4912 0012344 267.8245  92.0250  1.86228970 70636"
      },
      "geometry": {
        "type": "Point",
        "coordinates": [
          120.38760461913797,
          11.05254510157308
        ]
      }
    },
    {
      "type": "Feature",
      "properties": {
        "norad_id": 40749,
        "name": "BEIDOU-3S M1S (C57)",
        "group": "beidou",
        "lat": 10.553357861389141,
        "lon": -44.28685254190583,
        "alt_km": 21514.88567157765,
        "timestamp": "2025-12-18T14:52:08.290999+00:00",
        "meta_object_name": "BEIDOU-3S M1S (C57)",
        "meta_object_id": "2015-037B",
        "meta_epoch": "2025-12-18T01:31:18.410592",
        "meta_mean_motion": 1.86254045,
        "meta_eccentricity": 0.00035849,
        "meta_inclination": 55.0306,
        "meta_ra_of_asc_node": 308.2705,
        "meta_arg_of_pericenter": 0.3009,
        "meta_mean_anomaly": 359.6859,
        "meta_ephemeris_type": 0,
        "meta_classification_type": "U",
        "meta_norad_cat_id": 40749,
        "meta_element_set_no": 999,
        "meta_rev_at_epoch": 7075,
        "meta_bstar": 0,
        "meta_mean_motion_dot": -8.6e-07,
        "meta_mean_motion_ddot": 0,
        "tle_line1": "1 40749U 15037B   25352.06340753 -.00000086  00000+0  00000+0 0  9998",
        "tle_line2": "2 40749  55.0306 308.2705 0003584   0.3009 359.6859  1.86254045 70751"
      },
      "geometry": {
        "type": "Point",
        "coordinates": [
          -44.28685254190583,
          10.553357861389141
        ]
      }
    }
  ]
}